HIMAWARI-8              
1 40267U 14060A   24028.91368869 -.00000268  00000+0  00000+0 0  9991
2 40267   0.0390 238.4408 0000898  51.9369 306.8562  1.00273513 34032
